{
  "type": "FeatureCollection",
  "features": [
    {
      "type": "Feature",
      "properties": {
        "norad_id": 26766,
        "name": "INTELSAT 10 (IS-10)",
        "group": "intelsat",
        "lat": -7.690319481340987,
        "lon": -56.58278248490148,
        "alt_km": 36094.06173097521,
        "timestamp": "2025-12-19T06:59:43.571251+00:00",
        "meta_object_name": "INTELSAT 10 (IS-10)",
        "meta_object_id": "2001-019A",
        "meta_epoch": "2025-12-18T15:52:21.542016",
        "meta_mean_motion": 0.99076062,
        "meta_eccentricity": 0.00076782,
        "meta_inclination": 8.6429,
        "meta_ra_of_asc_node": 61.0978,
        "meta_arg_of_pericenter": 228.2333,
        "meta_mean_anomaly": 149.5829,
        "meta_ephemeris_type": 0,
        "meta_classification_type": "U",
        "meta_norad_cat_id": 26766,
        "meta_element_set_no": 999,
        "meta_rev_at_epoch": 4379,
        "meta_bstar": 0,
        "meta_mean_motion_dot": -1.61e-06,
        "meta_mean_motion_ddot": 0,
        "tle_line1": "1 26766U 01019A   25352.66136044 -.00000161  00000+0  00000+0 0  9992",
        "tle_line2": "2 26766   8.6429  61.0978 0007678 228.2333 149.5829  0.99076062 43790"
      },
      "geometry": {
        "type": "Point",
        "coordinates": [
          -56.58278248490148,
          -7.690319481340987
        ]
      }
    },
    {
      "type": "Feature",
      "properties": {
        "norad_id": 26900,
        "name": "INTELSAT 902 (IS-902)",
        "group": "intelsat",
        "lat": 5.2991956256678305,
        "lon": 142.80459761793986,
        "alt_km": 35795.83874119099,
        "timestamp": "2025-12-19T06:59:43.571276+00:00",
        "meta_object_name": "INTELSAT 902 (IS-902)",
        "meta_object_id": "2001-039A",
        "meta_epoch": "2025-12-15T13:09:02.081664",
        "meta_mean_motion": 1.0027087,
        "meta_eccentricity": 0.00045028,
        "meta_inclination": 5.6536,
        "meta_ra_of_asc_node": 74.0372,
        "meta_arg_of_pericenter": 189.6359,
        "meta_mean_anomaly": 327.9329,
        "meta_ephemeris_type": 0,
        "meta_classification_type": "U",
        "meta_norad_cat_id": 26900,
        "meta_element_set_no": 999,
        "meta_rev_at_epoch": 8885,
        "meta_bstar": 0,
        "meta_mean_motion_dot": -2.65e-06,
        "meta_mean_motion_ddot": 0,
        "tle_line1": "1 26900U 01039A   25349.54794076 -.00000265  00000+0  00000+0 0  9997",
        "tle_line2": "2 26900   5.6536  74.0372 0004502 189.6359 327.9329  1.00270870 88858"
      },
      "geometry": {
        "type": "Point",
        "coordinates": [
          142.80459761793986,
          5.2991956256678305
        ]
      }
    },
    {
      "type": "Feature",
      "properties": {
        "norad_id": 27380,
        "name": "INTELSAT 904 (IS-904)",
        "group": "intelsat",
        "lat": 6.48024320318367,
        "lon": 161.5653042824023,
        "alt_km": 35791.90833829827,
        "timestamp": "2025-12-19T06:59:43.571292+00:00",
        "meta_object_name": "INTELSAT 904 (IS-904)",
        "meta_object_id": "2002-007A",
        "meta_epoch": "2025-12-18T14:51:25.201152",
        "meta_mean_motion": 1.00271527,
        "meta_eccentricity": 0.00017067,
        "meta_inclination": 6.4685,
        "meta_ra_of_asc_node": 71.3651,
        "meta_arg_of_pericenter": 246.0058,
        "meta_mean_anomaly": 321.4637,
        "meta_ephemeris_type": 0,
        "meta_classification_type": "U",
        "meta_norad_cat_id": 27380,
        "meta_element_set_no": 999,
        "meta_rev_at_epoch": 4995,
        "meta_bstar": 0,
        "meta_mean_motion_dot": -2.06e-06,
        "meta_mean_motion_ddot": 0,
        "tle_line1": "1 27380U 02007A   25352.61904168 -.00000206  00000+0  00000+0 0  9998",
        "tle_line2": "2 27380   6.4685  71.3651 0001706 246.0058 321.4637  1.00271527 49951"
      },
      "geometry": {
        "type": "Point",
        "coordinates": [
          161.5653042824023,
          6.48024320318367
        ]
      }
    },
    {
      "type": "Feature",
      "properties": {
        "norad_id": 27426,
        "name": "DIRECTV 5 (TEMPO 1)",
        "group": "intelsat",
        "lat": 0.4418219481417608,
        "lon": 82.95472765390635,
        "alt_km": 35799.18478900682,
        "timestamp": "2025-12-19T06:59:43.571329+00:00",
        "meta_object_name": "DIRECTV 5 (TEMPO 1)",
        "meta_object_id": "2002-023A",
        "meta_epoch": "2025-12-18T16:11:47.503968",
        "meta_mean_motion": 1.00272743,
        "meta_eccentricity": 0.00034103,
        "meta_inclination": 4.4165,
        "meta_ra_of_asc_node": 77.584,
        "meta_arg_of_pericenter": 207.0949,
        "meta_mean_anomaly": 295.6907,
        "meta_ephemeris_type": 0,
        "meta_classification_type": "U",
        "meta_norad_cat_id": 27426,
        "meta_element_set_no": 999,
        "meta_rev_at_epoch": 8631,
        "meta_bstar": 0,
        "meta_mean_motion_dot": -3.6e-07,
        "meta_mean_motion_ddot": 0,
        "tle_line1": "1 27426U 02023A   25352.67485537 -.00000036  00000+0  00000+0 0  9998",
        "tle_line2": "2 27426   4.4165  77.5840 0003410 207.0949 295.6907  1.00272743 86315"
      },
      "geometry": {
        "type": "Point",
        "coordinates": [
          82.95472765390635,
          0.4418219481417608
        ]
      }
    },
    {
      "type": "Feature",
      "properties": {
        "norad_id": 27438,
        "name": "INTELSAT 905 (IS-905)",
        "group": "intelsat",
        "lat": -1.7240449597882053,
        "lon": 55.967509374317025,
        "alt_km": 35795.23542176818,
        "timestamp": "2025-12-19T06:59:43.571356+00:00",
        "meta_object_name": "INTELSAT 905 (IS-905)",
        "meta_object_id": "2002-027A",
        "meta_epoch": "2025-12-18T20:04:07.110624",
        "meta_mean_motion": 1.00272079,
        "meta_eccentricity": 0.00026396,
        "meta_inclination": 6.3,
        "meta_ra_of_asc_node": 71.9858,
        "meta_arg_of_pericenter": 200.0074,
        "meta_mean_anomaly": 339.5183,
        "meta_ephemeris_type": 0,
        "meta_classification_type": "U",
        "meta_norad_cat_id": 27438,
        "meta_element_set_no": 999,
        "meta_rev_at_epoch": 4955,
        "meta_bstar": 0,
        "meta_mean_motion_dot": 1.13e-06,
        "meta_mean_motion_ddot": 0,
        "tle_line1": "1 27438U 02027A   25352.83619341  .00000113  00000+0  00000+0 0  9990",
        "tle_line2": "2 27438   6.3000  71.9858 0002639 200.0074 339.5183  1.00272079 49559"
      },
      "geometry": {
        "type": "Point",
        "coordinates": [
          55.967509374317025,
          -1.7240449597882053
        ]
      }
    },
    {
      "type": "Feature",
      "properties": {
        "norad_id": 27445,
        "name": "GALAXY 3C (G-3C)",
        "group": "intelsat",
        "lat": 1.026370412945897,
        "lon": 98.16667828832925,
        "alt_km": 35783.49592320039,
        "timestamp": "2025-12-19T06:59:43.571370+00:00",
        "meta_object_name": "GALAXY 3C (G-3C)",
        "meta_object_id": "2002-030A",
        "meta_epoch": "2025-12-18T19:41:32.858016",
        "meta_mean_motion": 1.00271925,
        "meta_eccentricity": 0.00011454,
        "meta_inclination": 3.2783,
        "meta_ra_of_asc_node": 80.4458,
        "meta_arg_of_pericenter": 77.4662,
        "meta_mean_anomaly": 130.2917,
        "meta_ephemeris_type": 0,
        "meta_classification_type": "U",
        "meta_norad_cat_id": 27445,
        "meta_element_set_no": 999,
        "meta_rev_at_epoch": 4468,
        "meta_bstar": 0,
        "meta_mean_motion_dot": -1.3e-06,
        "meta_mean_motion_ddot": 0,
        "tle_line1": "1 27445U 02030A   25352.82051919 -.00000130  00000+0  00000+0 0  9992",
        "tle_line2": "2 27445   3.2783  80.4458 0001145  77.4662 130.2917  1.00271925 44681"
      },
      "geometry": {
        "type": "Point",
        "coordinates": [
          98.16667828832925,
          1.026370412945897
        ]
      }
    },
    {
      "type": "Feature",
      "properties": {
        "norad_id": 27513,
        "name": "INTELSAT 906 (IS-906)",
        "group": "intelsat",
        "lat": -0.21453840653017403,
        "lon": -102.82938801860892,
        "alt_km": 35760.130613623325,
        "timestamp": "2025-12-19T06:59:43.571383+00:00",
        "meta_object_name": "INTELSAT 906 (IS-906)",
        "meta_object_id": "2002-041A",
        "meta_epoch": "2025-12-18T20:13:38.922240",
        "meta_mean_motion": 1.00272534,
        "meta_eccentricity": 0.0006302,
        "meta_inclination": 5.3449,
        "meta_ra_of_asc_node": 75.1597,
        "meta_arg_of_pericenter": 197.4731,
        "meta_mean_anomaly": 182.6056,
        "meta_ephemeris_type": 0,
        "meta_classification_type": "U",
        "meta_norad_cat_id": 27513,
        "meta_element_set_no": 999,
        "meta_rev_at_epoch": 8522,
        "meta_bstar": 0,
        "meta_mean_motion_dot": 3.3e-07,
        "meta_mean_motion_ddot": 0,
        "tle_line1": "1 27513U 02041A   25352.84281160  .00000033  00000+0  00000+0 0  9996",
        "tle_line2": "2 27513   5.3449  75.1597 0006302 197.4731 182.6056  1.00272534 85221"
      },
      "geometry": {
        "type": "Point",
        "coordinates": [
          -102.82938801860892,
          -0.21453840653017403
        ]
      }
    }
  ]
}